OBJECT_NAME,OBJECT_ID,EPOCH,MEAN_MOTION,ECCENTRICITY,INCLINATION,RA_OF_ASC_NODE,ARG_OF_PERICENTER,MEAN_ANOMALY,EPHEMERIS_TYPE,CLASSIFICATION_TYPE,NORAD_CAT_ID,ELEMENT_SET_NO,REV_AT_EPOCH,BSTAR,MEAN_MOTION_DOT,MEAN_MOTION_DDOT
ONEWEB-0578,2023-043X,2026-07-22T03:36:05.863104,13.21825856,.00019601,87.9234,237.0147,85.3424,274.7934,0,U,56067,999,16285,-.10575836E-3,-.31E-6,0
ONEWEB-0579,2023-043Y,2026-07-22T19:44:59.433504,13.21824509,.00021163,87.9236,236.8796,102.8858,257.2513,0,U,56068,999,16295,.20381339E-3,.97E-6,0
ONEWEB-0581,2023-043Z,2026-07-22T19:01:40.350432,13.16595519,.00014881,87.9068,221.7105,96.2411,263.8889,0,U,56069,999,16364,.1186548E-4,.17E-6,0
ONEWEB-0609,2023-043AA,2026-07-22T11:19:39.789984,13.15547239,.00021259,87.8976,252.1801,95.1366,265.0007,0,U,56070,999,16107,-.39373223E-3,-.135E-5,0
ONEWEB-0613,2023-043AB,2026-07-22T13:05:45.668544,13.15548055,.00022727,87.8977,252.1779,101.2560,258.8825,0,U,56071,999,16108,-.45172749E-3,-.157E-5,0
ONEWEB-0630,2023-043AC,2026-07-22T12:58:53.809248,13.15549254,.00022313,87.8985,252.1526,101.3068,258.8313,0,U,56072,999,16107,-.2694527E-3,-.89E-6,0
ONEWEB-0632,2023-043AD,2026-07-22T20:10:08.330016,13.15562256,.00019833,87.8981,252.1092,104.1853,255.9498,0,U,56073,999,16111,-.54196125E-2,-.2027E-4,0
ONEWEB-0633,2023-043AE,2026-07-22T20:01:02.091072,13.15548897,.0002468,87.8990,252.0888,100.2990,259.8418,0,U,56074,999,16109,-.85428137E-4,-.19E-6,0
ONEWEB-0634,2023-043AF,2026-07-22T21:30:01.762272,13.15548066,.00022285,87.8974,252.1134,90.4187,269.7199,0,U,56075,999,16109,-.84397903E-4,-.19E-6,0
ONEWEB-0635,2023-043AG,2026-07-22T14:05:05.397792,13.15547857,.0001772,87.8979,252.1409,99.4977,260.6354,0,U,56076,999,16108,.25866538E-3,.11E-5,0
ONEWEB-0636,2023-043AH,2026-07-22T13:53:40.539552,13.15548360,.00017972,87.8983,252.1478,97.8411,262.2924,0,U,56077,999,16106,.33822327E-3,.14E-5,0
ONEWEB-0637,2023-043AJ,2026-07-22T13:44:32.928576,13.15548385,.00018662,87.8970,252.1633,89.4187,270.7158,0,U,56078,999,16108,.27043327E-4,.23E-6,0
ONEWEB-0647,2023-043AK,2026-07-22T13:37:41.600640,13.15549233,.00019847,87.8975,252.1770,101.3048,258.8305,0,U,56079,999,16107,.18801266E-3,.84E-6,0
ONEWEB-0651,2023-043AL,2026-07-22T22:38:28.687776,13.15548316,.00018162,87.8974,252.0950,94.6595,265.4742,0,U,56080,999,16232,.606451E-6,.13E-6,0
ONEWEB-0718,2023-043AM,2026-07-22T09:44:57.186816,13.15549788,.00024217,87.8984,252.1833,88.0527,272.0881,0,U,56081,999,16106,-.23116297E-3,-.74E-6,0
ONEWEB-0561,2023-068A,2026-07-22T21:05:55.783968,13.20771631,.00017538,87.9175,267.3309,106.1096,254.0231,0,U,56710,999,15421,.25155206E-3,.115E-5,0
ONEWEB-0668,2023-068B,2026-07-22T18:25:12.011232,13.16595311,.00021682,87.9078,221.7043,77.4114,282.7260,0,U,56711,999,15646,-.52236162E-4,-.7E-7,0
ONEWEB-0676,2023-068C,2026-07-22T11:18:50.600736,13.16592510,.0001747,87.9080,221.7698,93.8923,266.2407,0,U,56712,999,15634,-.24939477E-3,-.82E-6,0
ONEWEB-0677,2023-068D,2026-07-22T20:48:58.171680,13.20772290,.0001728,87.9179,267.3246,91.0579,269.0752,0,U,56713,999,15451,.13257747E-3,.67E-6,0
ONEWEB-0678,2023-068E,2026-07-22T05:20:17.774880,13.15547782,.00021305,87.8987,252.2150,103.9910,256.1458,0,U,56714,999,15389,-.25968846E-3,-.85E-6,0
ONEWEB-0679,2023-068F,2026-07-22T19:26:46.064832,13.16594552,.00017443,87.9075,221.6935,77.5707,282.5620,0,U,56715,999,15641,.18466627E-3,.83E-6,0
ONEWEB-0680,2023-068G,2026-07-22T08:53:23.694432,13.21826175,.0002044,87.9236,236.9707,78.3819,281.7544,0,U,56716,999,15574,.211485E-4,.22E-6,0
ONEWEB-0681,2023-068H,2026-07-22T19:19:32.668608,13.21825352,.00011587,87.9231,236.8845,108.6404,251.4856,0,U,56717,999,15579,-.52887163E-3,-.205E-5,0
ONEWEB-0682,2023-068J,2026-07-22T13:12:36.618048,13.15548455,.00020423,87.8982,252.1494,82.5595,277.5767,0,U,56718,999,15410,-.34040429E-3,-.115E-5,0
ONEWEB-0683,2023-068K,2026-07-22T21:04:55.127712,13.15549355,.00020756,87.8986,252.0852,89.4137,270.7231,0,U,56719,999,15411,.19746895E-3,.87E-6,0
ONEWEB-0684,2023-068L,2026-07-22T04:50:36.912768,13.15548912,.00031832,87.8984,252.2088,112.6551,247.4917,0,U,56720,999,15385,.47964399E-3,.193E-5,0
ONEWEB-0686,2023-068M,2026-07-22T18:29:46.753728,13.16594268,.00023653,87.9068,221.7216,88.6132,271.5270,0,U,56721,999,15639,-.38013771E-4,-.2E-7,0
ONEWEB-0694,2023-068N,2026-07-22T18:38:54.191904,13.16593540,.00021263,87.9090,221.6921,79.3203,280.8167,0,U,56722,999,15645,-.71976884E-4,-.15E-6,0
ONEWEB-0696,2023-068P,2026-07-22T09:17:33.943488,13.15550194,.00021976,87.8978,252.2081,109.1608,250.9760,0,U,56723,999,15399,-.34684754E-4,0,0
ONEWEB-0703,2023-068Q,2026-07-22T20:28:24.725280,13.15548043,.00020667,87.8976,252.0962,121.8114,238.3217,0,U,56724,999,15394,-.4427104E-3,-.154E-5,0
