{"epoch":1784799577,"count":18318,"objects":[{"id":"56067","name":"ONEWEB-0578","type":"PAYLOAD","l1":"1 56067U 23043X   26203.15006786 -.00000031  00000-0 -10576-3 0  9990","l2":"2 56067  87.9234 237.0147 0001960  85.3424 274.7934 13.21825856162854"},{"id":"56068","name":"ONEWEB-0579","type":"PAYLOAD","l1":"1 56068U 23043Y   26203.82291011  .00000097  00000-0  20381-3 0  9997","l2":"2 56068  87.9236 236.8796 0002116 102.8858 257.2513 13.21824509162958"},{"id":"56069","name":"ONEWEB-0581","type":"PAYLOAD","l1":"1 56069U 23043Z   26203.79282813  .00000017  00000-0  11865-4 0  9994","l2":"2 56069  87.9068 221.7105 0001488  96.2411 263.8889 13.16595519163647"},{"id":"56070","name":"ONEWEB-0609","type":"PAYLOAD","l1":"1 56070U 23043AA  26203.47198831 -.00000135  00000-0 -39373-3 0  9993","l2":"2 56070  87.8976 252.1801 0002126  95.1366 265.0007 13.15547239161070"},{"id":"56071","name":"ONEWEB-0613","type":"PAYLOAD","l1":"1 56071U 23043AB  26203.54566746 -.00000157  00000-0 -45173-3 0  9995","l2":"2 56071  87.8977 252.1779 0002273 101.2560 258.8825 13.15548055161080"},{"id":"56072","name":"ONEWEB-0630","type":"PAYLOAD","l1":"1 56072U 23043AC  26203.54090057 -.00000089  00000-0 -26945-3 0  9993","l2":"2 56072  87.8985 252.1526 0002231 101.3068 258.8313 13.15549254161071"},{"id":"56073","name":"ONEWEB-0632","type":"PAYLOAD","l1":"1 56073U 23043AD  26203.84037419 -.00002027  00000-0 -54196-2 0  9992","l2":"2 56073  87.8981 252.1092 0001983 104.1853 255.9498 13.15562256161116"},{"id":"56074","name":"ONEWEB-0633","type":"PAYLOAD","l1":"1 56074U 23043AE  26203.83405198 -.00000019  00000-0 -85428-4 0  9998","l2":"2 56074  87.8990 252.0888 0002468 100.2990 259.8418 13.15548897161094"},{"id":"56075","name":"ONEWEB-0634","type":"PAYLOAD","l1":"1 56075U 23043AF  26203.89585373 -.00000019  00000-0 -84398-4 0  9994","l2":"2 56075  87.8974 252.1134 0002229  90.4187 269.7199 13.15548066161099"},{"id":"56076","name":"ONEWEB-0635","type":"PAYLOAD","l1":"1 56076U 23043AG  26203.58686803  .00000110  00000-0  25867-3 0  9996","l2":"2 56076  87.8979 252.1409 0001772  99.4977 260.6354 13.15547857161087"},{"id":"56077","name":"ONEWEB-0636","type":"PAYLOAD","l1":"1 56077U 23043AH  26203.57894143  .00000140  00000-0  33822-3 0  9997","l2":"2 56077  87.8983 252.1478 0001797  97.8411 262.2924 13.15548360161060"},{"id":"56078","name":"ONEWEB-0637","type":"PAYLOAD","l1":"1 56078U 23043AJ  26203.57260334  .00000023  00000-0  27043-4 0  9996","l2":"2 56078  87.8970 252.1633 0001866  89.4187 270.7158 13.15548385161086"},{"id":"56079","name":"ONEWEB-0647","type":"PAYLOAD","l1":"1 56079U 23043AK  26203.56784260  .00000084  00000-0  18801-3 0  9993","l2":"2 56079  87.8975 252.1770 0001985 101.3048 258.8305 13.15549233161079"},{"id":"56080","name":"ONEWEB-0651","type":"PAYLOAD","l1":"1 56080U 23043AL  26203.94338759  .00000013  00000-0  60645-6 0  9993","l2":"2 56080  87.8974 252.0950 0001816  94.6595 265.4742 13.15548316162322"},{"id":"56081","name":"ONEWEB-0718","type":"PAYLOAD","l1":"1 56081U 23043AM  26203.40621744 -.00000074  00000-0 -23116-3 0  9992","l2":"2 56081  87.8984 252.1833 0002422  88.0527 272.0881 13.15549788161063"},{"id":"56710","name":"ONEWEB-0561","type":"PAYLOAD","l1":"1 56710U 23068A   26203.87911787  .00000115  00000-0  25155-3 0  9997","l2":"2 56710  87.9175 267.3309 0001754 106.1096 254.0231 13.20771631154219"},{"id":"56711","name":"ONEWEB-0668","type":"PAYLOAD","l1":"1 56711U 23068B   26203.76750013 -.00000007  00000-0 -52236-4 0  9992","l2":"2 56711  87.9078 221.7043 0002168  77.4114 282.7260 13.16595311156465"},{"id":"56712","name":"ONEWEB-0676","type":"PAYLOAD","l1":"1 56712U 23068C   26203.47141899 -.00000082  00000-0 -24939-3 0  9998","l2":"2 56712  87.9080 221.7698 0001747  93.8923 266.2407 13.16592510156342"},{"id":"56713","name":"ONEWEB-0677","type":"PAYLOAD","l1":"1 56713U 23068D   26203.86733995  .00000067  00000-0  13258-3 0  9999","l2":"2 56713  87.9179 267.3246 0001728  91.0579 269.0752 13.20772290154514"},{"id":"56714","name":"ONEWEB-0678","type":"PAYLOAD","l1":"1 56714U 23068E   26203.22242795 -.00000085  00000-0 -25969-3 0  9997","l2":"2 56714  87.8987 252.2150 0002131 103.9910 256.1458 13.15547782153899"},{"id":"56715","name":"ONEWEB-0679","type":"PAYLOAD","l1":"1 56715U 23068F   26203.81025538  .00000083  00000-0  18467-3 0  9998","l2":"2 56715  87.9075 221.6935 0001744  77.5707 282.5620 13.16594552156412"},{"id":"56716","name":"ONEWEB-0680","type":"PAYLOAD","l1":"1 56716U 23068G   26203.37041313  .00000022  00000-0  21149-4 0  9994","l2":"2 56716  87.9236 236.9707 0002044  78.3819 281.7544 13.21826175155741"},{"id":"56717","name":"ONEWEB-0681","type":"PAYLOAD","l1":"1 56717U 23068H   26203.80523922 -.00000205  00000-0 -52887-3 0  9991","l2":"2 56717  87.9231 236.8845 0001159 108.6404 251.4856 13.21825352155793"},{"id":"56718","name":"ONEWEB-0682","type":"PAYLOAD","l1":"1 56718U 23068J   26203.55042382 -.00000115  00000-0 -34040-3 0  9991","l2":"2 56718  87.8982 252.1494 0002042  82.5595 277.5767 13.15548455154103"},{"id":"56719","name":"ONEWEB-0683","type":"PAYLOAD","l1":"1 56719U 23068K   26203.87841583  .00000087  00000-0  19747-3 0  9990","l2":"2 56719  87.8986 252.0852 0002076  89.4137 270.7231 13.15549355154112"},{"id":"56720","name":"ONEWEB-0684","type":"PAYLOAD","l1":"1 56720U 23068L   26203.20181612  .00000193  00000-0  47964-3 0  9999","l2":"2 56720  87.8984 252.2088 0003183 112.6551 247.4917 13.15548912153854"},{"id":"56721","name":"ONEWEB-0686","type":"PAYLOAD","l1":"1 56721U 23068M   26203.77068002 -.00000002  00000-0 -38014-4 0  9997","l2":"2 56721  87.9068 221.7216 0002365  88.6132 271.5270 13.16594268156399"},{"id":"56722","name":"ONEWEB-0694","type":"PAYLOAD","l1":"1 56722U 23068N   26203.77701611 -.00000015  00000-0 -71977-4 0  9997","l2":"2 56722  87.9090 221.6921 0002126  79.3203 280.8167 13.16593540156455"},{"id":"56723","name":"ONEWEB-0696","type":"PAYLOAD","l1":"1 56723U 23068P   26203.38719842  .00000000  00000-0 -34685-4 0  9998","l2":"2 56723  87.8978 252.2081 0002198 109.1608 250.9760 13.15550194153997"},{"id":"56724","name":"ONEWEB-0703","type":"PAYLOAD","l1":"1 56724U 23068Q   26203.85306395 -.00000154  00000-0 -44271-3 0  9998","l2":"2 56724  87.8976 252.0962 0002067 121.8114 238.3217 13.15548043153942"}]}